{
  "norad_id": 45663,
  "name": "STARLINK-1446",
  "history": [
    {
      "epoch": "2026-03-28T18:51:20.385504",
      "apogee_km": 436.27425411210606,
      "perigee_km": 434.2989063477262,
      "latitude_deg": -16.003658833967272,
      "longitude_deg": -98.27734943991527,
      "semi_major_axis_km": 6813.423580229915,
      "eccentricity": 0.00014496,
      "inclination_deg": 53.023,
      "raan_deg": 268.6134,
      "arg_perigee_deg": 1.2844,
      "mean_anomaly_deg": 358.8164,
      "mean_motion_rev_day": 15.43670761
    }
  ]
}