{"fetched_at":"2026-03-30T06:02:59Z","count":15439,"tles":[{"name":"STARLINK-1446","line1":"1 45663U 20035G   26087.78565261  .00024607  00000+0  54480-3 0  9999","line2":"2 45663  53.0230 268.6134 0001449   1.2844 358.8164 15.43670761322626","category":"Starlink"}]}